NORAD_CAT_ID,OBJECT_NAME,OBJECT_TYPE,EPOCH,MEAN_MOTION,ECCENTRICITY,INCLINATION,RA_OF_ASC_NODE,ARG_OF_PERICENTER,MEAN_ANOMALY,BSTAR,MEAN_MOTION_DOT,MEAN_MOTION_DDOT,TLE_LINE0,TLE_LINE1,TLE_LINE2,SEMIMAJOR_AXIS,PERIOD,APOGEE,PERIGEE,DECAYED
56472.0,STARLINK-5038,PAYLOAD,2023-10-15 02:38:19,14.98326602,0.0002927,69.9996,174.7258,270.0949,89.9875,-8.4635e-05,-1.103e-05,0.0,0 STARLINK-5038,1 56472U 23064AA  23288.10994862 -.00001103  00000-0 -84635-4 0  9998,2 56472  69.9996 174.7258 0002927 270.0949  89.9875 14.98326602 24439,6950.203,96.107,574.103,570.034,0.0
56472.0,STARLINK-5038,PAYLOAD,2023-10-15 20:15:47,14.98329426,0.0002942,69.9995,172.8744,269.9563,90.1259,-3.866e-06,-1.39e-06,0.0,0 STARLINK-5038,1 56472U 23064AA  23288.84430515 -.00000139  00000-0 -38660-5 0  9995,2 56472  69.9995 172.8744 0002942 269.9563  90.1259 14.98329426 24902,6950.195,96.107,574.104,570.015,0.0
56472.0,STARLINK-5038,PAYLOAD,2023-10-15 21:51:56,14.98329217,0.0002946,69.9995,172.7062,269.9945,90.0877,-3.0611e-06,-1.3e-06,0.0,0 STARLINK-5038,1 56472U 23064AA  23288.91106531 -.00000130  00000-0 -30611-5 0  9990,2 56472  69.9995 172.7062 0002946 269.9945  90.0877 14.98329217 24556,6950.195,96.107,574.108,570.013,0.0
56472.0,STARLINK-5038,PAYLOAD,2023-10-16 09:04:51,14.98343626,0.000291,69.9995,171.5279,269.2765,90.806,-0.00018646,-2.318e-05,0.0,0 STARLINK-5038,1 56472U 23064AA  23289.37837946 -.00002318  00000-0 -18646-3 0  9994,2 56472  69.9995 171.5279 0002910 269.2765  90.8060 14.98343626 24986,6950.151,96.106,574.038,569.993,0.0
56472.0,STARLINK-5038,PAYLOAD,2023-10-16 17:05:32,14.98327847,0.0002988,69.9994,170.6863,268.538,91.5437,0.00011859,1.322e-05,0.0,0 STARLINK-5038,1 56472U 23064AA  23289.71218167  .00001322  00000-0  11859-3 0  9991,2 56472  69.9994 170.6863 0002988 268.5380  91.5437 14.98327847 25034,6950.2,96.107,574.141,569.988,0.0
56472.0,STARLINK-5038,PAYLOAD,2023-10-17 09:06:53,14.98333284,0.0002971,69.9994,169.0029,269.104,90.9778,-1.2949e-05,-2.48e-06,0.0,0 STARLINK-5038,1 56472U 23064AA  23290.37978094 -.00000248  00000-0 -12949-4 0  9997,2 56472  69.9994 169.0029 0002971 269.1040  90.9778 14.98333284 24775,6950.183,96.107,574.113,569.983,0.0
56472.0,STARLINK-5038,PAYLOAD,2023-10-18 01:08:14,14.98321219,0.0002857,69.9994,167.3199,265.9308,94.1525,0.00011943,1.332e-05,0.0,0 STARLINK-5038,1 56472U 23064AA  23291.04738530  .00001332  00000-0  11943-3 0  9996,2 56472  69.9994 167.3199 0002857 265.9308  94.1525 14.98321219 24870,6950.22,96.108,574.071,570.099,0.0
56472.0,STARLINK-5038,PAYLOAD,2023-10-18 09:08:53,14.98339497,0.0002948,69.9995,166.4784,270.9018,89.1804,-0.00017557,-2.188e-05,0.0,0 STARLINK-5038,1 56472U 23064AA  23291.38118034 -.00002188  00000-0 -17557-3 0  9993,2 56472  69.9995 166.4784 0002948 270.9018  89.1804 14.98339497 25283,6950.164,96.106,574.077,569.98,0.0
56472.0,STARLINK-5038,PAYLOAD,2023-10-18 15:33:26,14.98322294,0.0002987,69.9995,165.8048,270.5824,89.4993,8.4872e-05,9.2e-06,0.0,0 STARLINK-5038,1 56472U 23064AA  23291.64822465  .00000920  00000-0  84872-4 0  9997,2 56472  69.9995 165.8048 0002987 270.5824  89.4993 14.98322294 25327,6950.217,96.107,574.158,570.006,0.0
56472.0,STARLINK-5038,PAYLOAD,2023-10-18 21:57:58,14.98333724,0.0003095,69.9996,165.1328,272.3618,87.7187,-1.2227e-05,-2.39e-06,0.0,0 STARLINK-5038,1 56472U 23064AA  23291.91525985 -.00000239  00000-0 -12227-4 0  9994,2 56472  69.9996 165.1328 0003095 272.3618  87.7187 14.98333724 25005,6950.181,96.107,574.197,569.895,0.0
56472.0,STARLINK-5038,PAYLOAD,2023-10-19 01:10:14,14.98332248,0.0002548,69.9974,164.7955,269.467,90.6197,2.2048e-05,1.7e-06,0.0,0 STARLINK-5038,1 56472U 23064AA  23292.04878007  .00000170  00000-0  22048-4 0  9999,2 56472  69.9974 164.7955 0002548 269.4670  90.6197 14.98332248 25384,6950.186,96.107,573.822,570.28,0.0
56472.0,STARLINK-5038,PAYLOAD,2023-10-19 21:59:59,14.98313301,0.0002854,69.9945,162.6057,272.9607,87.1225,0.00015398,1.744e-05,0.0,0 STARLINK-5038,1 56472U 23064AA  23292.91666644  .00001744  00000-0  15398-3 0  9994,2 56472  69.9945 162.6057 0002854 272.9607  87.1225 14.98313301 25158,6950.245,96.108,574.093,570.126,0.0
56472.0,STARLINK-5038,PAYLOAD,2023-10-20 01:12:15,14.98326721,0.0002971,69.999,162.2703,270.5553,89.5266,-3.5864e-06,-1.36e-06,0.0,0 STARLINK-5038,1 56472U 23064AA  23293.05018435 -.00000136  00000-0 -35864-5 0  9997,2 56472  69.9990 162.2703 0002971 270.5553  89.5266 14.98326721 25539,6950.203,96.107,574.133,570.003,0.0
56472.0,STARLINK-5038,PAYLOAD,2023-10-20 22:02:00,14.98327658,0.000262,69.9998,160.0806,281.4897,78.5968,-9.5386e-06,-2.07e-06,0.0,0 STARLINK-5038,1 56472U 23064AA  23293.91806649 -.00000207  00000-0 -95386-5 0  9998,2 56472  69.9998 160.0806 0002620 281.4897  78.5968 14.98327658 25302,6950.2,96.107,573.886,570.244,0.0
56472.0,STARLINK-5038,PAYLOAD,2023-10-21 01:14:16,14.98329615,0.0002695,70.0,159.7452,277.9844,82.1009,6.24e-06,-1.9e-07,0.0,0 STARLINK-5038,1 56472U 23064AA  23294.05158387 -.00000019  00000-0  62400-5 0  9994,2 56472  70.0000 159.7452 0002695 277.9844  82.1009 14.98329615 25688,6950.194,96.107,573.932,570.186,0.0
56472.0,STARLINK-5038,PAYLOAD,2023-10-21 22:03:49,14.98480123,0.0003215,69.9998,157.5559,264.711,95.3683,0.0017379,0.00020786,0.0,0 STARLINK-5038,1 56472U 23064AA  23294.91932616  .00020786  00000-0  17379-2 0  9998,2 56472  69.9998 157.5559 0003215 264.7110  95.3683 14.98480123 25455,6949.729,96.097,573.828,569.359,0.0
56472.0,STARLINK-5038,PAYLOAD,2023-10-22 01:16:18,14.98314368,0.0003308,69.9988,157.2201,262.7721,97.3062,-0.00023862,-2.938e-05,0.0,0 STARLINK-5038,1 56472U 23064AA  23295.05299143 -.00002938  00000-0 -23862-3 0  9991,2 56472  69.9988 157.2201 0003308 262.7721  97.3062 14.98314368 25836,6950.241,96.108,574.405,569.807,0.0
56472.0,STARLINK-5038,PAYLOAD,2023-10-22 07:40:49,14.98333265,0.0002901,69.9987,156.5466,276.1652,83.9176,-6.5025e-05,-8.69e-06,0.0,0 STARLINK-5038,1 56472U 23064AA  23295.32001769 -.00000869  00000-0 -65025-4 0  9995,2 56472  69.9987 156.5466 0002901 276.1652  83.9176 14.98333265 25878,6950.183,96.107,574.064,570.032,0.0
56472.0,STARLINK-5038,PAYLOAD,2023-10-22 20:29:57,14.98299426,0.0002788,69.9985,155.2001,276.396,83.6882,-0.00055011,-6.645e-05,0.0,0 STARLINK-5038,1 56472U 23064AA  23295.85413521 -.00006645  00000-0 -55011-3 0  9997,2 56472  69.9985 155.2001 0002788 276.3960  83.6882 14.98299426 25954,6950.287,96.109,574.09,570.215,0.0
56472.0,STARLINK-5038,PAYLOAD,2023-10-22 22:06:01,14.98346897,0.000272,69.9991,155.0313,273.2129,86.8719,0.00010779,1.194e-05,0.0,0 STARLINK-5038,1 56472U 23064AA  23295.92084963  .00001194  00000-0  10779-3 0  9993,2 56472  69.9991 155.0313 0002720 273.2129  86.8719 14.98346897 25605,6950.141,96.106,573.896,570.115,0.0
56472.0,STARLINK-5038,PAYLOAD,2023-10-22 23:42:11,14.98326884,0.0002459,69.9991,154.8636,267.6976,92.3901,-0.00019191,-2.382e-05,0.0,0 STARLINK-5038,1 56472U 23064AA  23295.98762929 -.00002382  00000-0 -19191-3 0  9993,2 56472  69.9991 154.8636 0002459 267.6976  92.3901 14.98326884 25975,6950.203,96.107,573.777,570.358,0.0
56472.0,STARLINK-5038,PAYLOAD,2023-10-23 20:31:55,14.98330342,0.0002842,69.9982,152.6748,276.8293,83.2542,-7.9916e-05,-1.046e-05,0.0,0 STARLINK-5038,1 56472U 23064AA  23296.85550387 -.00001046  00000-0 -79916-4 0  9991,2 56472  69.9982 152.6748 0002842 276.8293  83.2542 14.98330342 26105,6950.192,96.107,574.032,570.082,0.0
56472.0,STARLINK-5038,PAYLOAD,2023-10-23 22:08:03,14.98332245,0.0003114,69.9976,152.5051,280.9253,79.1556,-0.00010273,-1.319e-05,0.0,0 STARLINK-5038,1 56472U 23064AA  23296.92226300 -.00001319  00000-0 -10273-3 0  9997,2 56472  69.9976 152.5051 0003114 280.9253  79.1556 14.98332245 25752,6950.186,96.107,574.215,569.887,0.0
56472.0,STARLINK-5038,PAYLOAD,2023-10-24 07:44:51,14.98337808,0.0003079,69.9974,151.4967,272.9963,87.0844,-9.2918e-05,-1.202e-05,0.0,0 STARLINK-5038,1 56472U 23064AA  23297.32281769 -.00001202  00000-0 -92918-4 0  9990,2 56472  69.9974 151.4967 0003079 272.9963  87.0844 14.98337808 26178,6950.169,96.106,574.174,569.894,0.0
56472.0,STARLINK-5038,PAYLOAD,2023-10-24 23:46:11,14.98331268,0.0002942,69.9978,149.8133,273.7112,86.371,0.00016396,1.864e-05,0.0,0 STARLINK-5038,1 56472U 23064AA  23297.99041570  .00001864  00000-0  16396-3 0  9994,2 56472  69.9978 149.8133 0002942 273.7112  86.3710 14.98331268 25910,6950.189,96.107,574.099,570.009,0.0
56472.0,STARLINK-5038,PAYLOAD,2023-10-25 23:48:13,14.98329911,0.0002749,69.9985,147.2882,274.6623,85.4222,2.0778e-05,1.55e-06,0.0,0 STARLINK-5038,1 56472U 23064AA  23298.99181995  .00000155  00000-0  20778-4 0  9993,2 56472  69.9985 147.2882 0002749 274.6623  85.4222 14.98329911 26420,6950.193,96.107,573.969,570.148,0.0
56472.0,STARLINK-5038,PAYLOAD,2023-10-26 14:13:25,14.98336165,0.0002619,69.9989,145.7728,284.2899,75.7969,-4.6319e-05,-6.46e-06,0.0,0 STARLINK-5038,1 56472U 23064AA  23299.59265781 -.00000646  00000-0 -46319-4 0  9992,2 56472  69.9989 145.7728 0002619 284.2899  75.7969 14.98336165 26153,6950.174,96.107,573.859,570.219,0.0
56472.0,STARLINK-5038,PAYLOAD,2023-10-26 20:37:57,14.98342501,0.0002916,69.9986,145.1008,273.7392,86.3433,-0.00015928,-1.994e-05,0.0,0 STARLINK-5038,1 56472U 23064AA  23299.85969547 -.00001994  00000-0 -15928-3 0  9990,2 56472  69.9986 145.1008 0002916 273.7392  86.3433 14.98342501 26195,6950.154,96.106,574.046,569.993,0.0
56472.0,STARLINK-5038,PAYLOAD,2023-10-26 23:50:13,14.98328862,0.0002941,69.9982,144.7637,273.1526,86.9296,5.4344e-05,5.55e-06,0.0,0 STARLINK-5038,1 56472U 23064AA  23299.99321694  .00000555  00000-0  54344-4 0  9996,2 56472  69.9982 144.7637 0002941 273.1526  86.9296 14.98328862 26574,6950.196,96.107,574.105,570.017,0.0
56472.0,STARLINK-5038,PAYLOAD,2023-10-27 22:16:06,14.9833388,0.0002943,69.9978,142.4069,273.4112,86.6711,2.8174e-05,2.43e-06,0.0,0 STARLINK-5038,1 56472U 23064AA  23300.92785267  .00000243  00000-0  28174-4 0  9998,2 56472  69.9978 142.4069 0002943 273.4112  86.6711 14.98333880 26350,6950.181,96.107,574.091,570.0,0.0
